OBJECT_NAME,OBJECT_ID,EPOCH,MEAN_MOTION,ECCENTRICITY,INCLINATION,RA_OF_ASC_NODE,ARG_OF_PERICENTER,MEAN_ANOMALY,EPHEMERIS_TYPE,CLASSIFICATION_TYPE,NORAD_CAT_ID,ELEMENT_SET_NO,REV_AT_EPOCH,BSTAR,MEAN_MOTION_DOT,MEAN_MOTION_DDOT
STARLINK-30120,2023-079B,2026-07-10T22:40:16.301568,15.27584228,.00004431,43.0013,131.3996,318.6067,41.4751,0,U,56824,999,17205,-.20281258E-4,-.82E-5,0
STARLINK-30084,2023-079C,2026-07-11T05:04:05.990880,15.27570538,.00018168,42.9982,129.1115,260.4916,99.5731,0,U,56825,999,17178,-.34189539E-4,-.1203E-4,0
STARLINK-30114,2023-079D,2026-07-11T05:59:35.172960,15.27549334,.00025382,42.9994,129.2019,16.5844,343.5090,0,U,56826,999,17209,.85960949E-4,.2101E-4,0
STARLINK-30151,2023-079E,2026-07-10T23:30:00.655200,15.27597656,.00011141,42.9956,130.7871,9.5493,350.5379,0,U,56827,999,17174,-.7822511E-4,-.2415E-4,0
STARLINK-30152,2023-079F,2026-07-11T04:18:02.158560,15.27571459,.00021937,43.0045,129.7104,253.8926,106.1684,0,U,56828,999,17177,.2865755E-5,-.184E-5,0
STARLINK-30128,2023-079K,2026-07-11T03:43:44.315328,15.27559937,.00016283,43.0055,103.9645,239.5180,120.5511,0,U,56832,999,16566,.12978453E-3,.3309E-4,0
STARLINK-30131,2023-079L,2026-07-10T23:20:31.796736,15.24685064,.00028229,43.0010,109.6198,196.0959,163.9802,0,U,56833,999,17198,.40832144E-3,.10054E-3,0
STARLINK-30069,2023-079M,2026-07-11T04:13:11.471808,15.27581083,.00017041,43.0019,126.2740,271.8161,88.2496,0,U,56834,999,17181,.30176432E-4,.568E-5,0
STARLINK-30144,2023-079N,2026-07-11T05:12:45.559872,15.42633407,.00145525,42.9869,118.7249,177.8407,182.2516,0,U,56835,999,17190,.69342045E-3,.30824E-3,0
STARLINK-30142,2023-079P,2026-07-09T22:40:52.460832,15.27581676,.00013677,43.0042,133.3808,259.7347,100.3350,0,U,56836,999,17162,.40247196E-4,.846E-5,0
STARLINK-30133,2023-079Q,2026-07-11T05:02:13.882560,15.27573061,.00011556,43.0030,129.0794,272.5300,87.5419,0,U,56837,999,17178,-.17849969E-4,-.753E-5,0
STARLINK-30123,2023-079R,2026-07-10T23:48:30.737088,15.27573648,.00008211,43.0002,57.5948,270.3610,89.7148,0,U,56838,999,17260,-.4842318E-5,-.395E-5,0
STARLINK-30076,2023-079S,2026-07-11T04:10:37.715232,15.27585568,.0000979,43.0034,129.6537,288.7137,71.3608,0,U,56839,999,17177,.14762831E-4,.144E-5,0
STARLINK-30073,2023-079T,2026-07-11T18:00:02.000160,15.27545813,.0001784,43.0038,311.7543,275.0532,207.0991,0,U,56840,999,563,.20376392E-2,.56179E-3,0
STARLINK-30078,2023-079U,2026-07-11T01:01:28.911072,15.27584450,.00007553,43.0000,82.7303,11.3470,348.7398,0,U,56841,999,17231,.9683319E-5,.5E-7,0
STARLINK-30135,2023-079V,2026-07-11T04:30:57.804192,15.27594485,.00007282,42.9996,129.6813,284.0532,76.0239,0,U,56842,999,17177,-.94553416E-4,-.2864E-4,0
STARLINK-30137,2023-079W,2026-07-11T05:30:00.690624,15.27564178,.00012205,42.9973,129.1353,42.3541,317.7404,0,U,56843,999,17178,-.6640426E-5,-.445E-5,0
STARLINK-30136,2023-079X,2026-07-11T04:16:09.379776,15.27575485,.00010193,43.0069,129.5873,296.5722,63.5025,0,U,56844,999,17177,.36448335E-4,.741E-5,0
2023-081A,2023-081A,2026-07-11T18:01:18.143616,15.23499298,.00023941,97.3697,262.4054,109.6613,250.4883,0,U,56846,999,17175,.23294868E-3,.5489E-4,0
2023-081W,2023-081W,2026-07-11T17:52:38.271360,15.25317403,.00087537,97.2890,255.6372,284.6818,75.3449,0,U,56866,999,17177,.15567994E-3,.3854E-4,0
LONGJIANG 3,2023-082A,2026-07-11T19:17:27.430944,15.38029216,.00062592,49.1075,278.1742,288.9838,71.0432,0,U,56874,999,17316,.22696621E-3,.8272E-4,0
STARLINK-6206,2023-083A,2026-07-11T16:47:51.744480,15.27570857,.00014029,43.0028,105.0703,267.6245,92.4447,0,U,56876,999,17059,.2117777E-5,-.204E-5,0
STARLINK-6209,2023-083B,2026-07-10T22:31:03.993024,15.27577900,.00010315,43.0019,108.8087,229.0714,131.0048,0,U,56877,999,17048,.38115707E-4,.787E-5,0
STARLINK-6182,2023-083C,2026-07-11T18:31:15.229920,15.27575982,.00014563,43.0017,104.7485,247.3157,112.7541,0,U,56878,999,17060,-.90119603E-4,-.2741E-4,0
STARLINK-5707,2023-083D,2026-07-11T04:29:24.135360,15.27579040,.00009265,43.0037,108.0978,281.0590,79.0158,0,U,56879,999,17051,-.9454044E-5,-.522E-5,0
STARLINK-6177,2023-083E,2026-07-11T03:48:41.818176,15.27583189,.00013988,43.0044,107.8930,270.9354,89.1337,0,U,56880,999,17051,-.4696293E-5,-.391E-5,0
STARLINK-5853,2023-083F,2026-07-11T03:00:49.282560,15.27551667,.00008967,43.0009,108.4944,312.3261,47.7515,0,U,56881,999,17050,-.106244E-3,-.3182E-4,0
STARLINK-6175,2023-083G,2026-07-10T04:07:05.969568,15.27575123,.00007281,43.0046,113.3803,308.4123,51.6663,0,U,56882,999,17036,-.82290479E-4,-.2525E-4,0
STARLINK-6171,2023-083H,2026-07-10T22:45:51.798816,15.27578349,.00010483,43.0025,108.8880,270.7810,89.2922,0,U,56883,999,17048,.30670419E-4,.582E-5,0
STARLINK-5515,2023-083J,2026-07-10T05:11:36.216096,15.27501914,.0004792,43.0020,112.8698,359.7325,0.3523,0,U,56884,999,17037,.78032466E-3,.21226E-3,0
STARLINK-5095,2023-083K,2026-07-10T04:01:32.964960,15.27585170,.00010337,43.0047,113.3489,291.2477,68.8264,0,U,56885,999,17036,.53041763E-4,.1198E-4,0
STARLINK-5496,2023-083L,2026-07-11T03:15:23.281632,15.27575642,.0001033,43.0027,107.7107,255.6743,104.3994,0,U,56886,999,17051,.23335911E-4,.38E-5,0
STARLINK-6180,2023-083M,2026-07-11T03:33:23.005152,15.27597738,.00021276,43.0064,112.0712,263.5632,96.4978,0,U,56887,999,17046,-.21419623E-3,-.6155E-4,0
STARLINK-6181,2023-083N,2026-07-11T04:10:11.097984,15.27578322,.00012257,43.0039,111.4100,266.0412,94.0300,0,U,56888,999,17047,.30134576E-4,.567E-5,0
STARLINK-6169,2023-083P,2026-07-10T03:46:43.359456,15.27597764,.00014756,43.0069,113.2631,266.6032,93.4651,0,U,56889,999,17035,-.78141793E-4,-.2413E-4,0
STARLINK-5528,2023-083Q,2026-07-10T23:01:48.849024,15.27578638,.00008904,43.0044,112.3797,266.0151,94.0599,0,U,56890,999,17044,.32858569E-4,.642E-5,0
STARLINK-6213,2023-083R,2026-07-10T22:42:09.865728,15.27581225,.00016017,43.0012,108.8661,256.9544,103.1129,0,U,56891,999,17048,-.39868275E-4,-.1359E-4,0
STARLINK-6219,2023-083S,2026-07-10T23:53:37.274784,15.27578876,.00013302,43.0019,112.6457,243.5242,116.5474,0,U,56892,999,17044,-.40584025E-4,-.1379E-4,0
STARLINK-6216,2023-083T,2026-07-11T03:30:11.135808,15.27573471,.00011746,43.0035,107.7893,259.0525,101.0195,0,U,56893,999,17063,-.13446919E-4,-.632E-5,0
STARLINK-6144,2023-083U,2026-07-10T23:11:03.460128,15.27590392,.00014085,43.0021,112.4299,255.7483,104.3212,0,U,56894,999,17056,.15027491E-4,.151E-5,0
STARLINK-6208,2023-083V,2026-07-10T22:13:56.271072,15.27570922,.00012595,43.0023,112.9890,291.6776,68.3941,0,U,56895,999,17043,.19953948E-4,.287E-5,0
STARLINK-6202,2023-083W,2026-07-09T05:20:15.514656,15.27607549,.00012766,43.0023,122.5574,258.7323,101.3385,0,U,56896,999,17028,.17533527E-3,.457E-4,0
STARLINK-6200,2023-083X,2026-07-11T05:55:25.941792,15.27616621,.0002239,43.0043,111.0977,294.7583,65.3036,0,U,56897,999,17059,-.14957661E-3,-.4381E-4,0
STARLINK-6205,2023-083Y,2026-07-11T02:44:52.561536,15.27560374,.0001049,43.0033,104.9928,241.2586,118.8161,0,U,56898,999,17065,-.3826038E-5,-.367E-5,0
STARLINK-6203,2023-083Z,2026-07-11T03:14:14.680032,15.27587375,.00012082,43.0038,104.2998,286.9211,73.1508,0,U,56899,999,17065,-.5646399E-5,-.418E-5,0
STARLINK-6207,2023-083AA,2026-07-11T01:40:19.394688,15.27583659,.00014216,43.0034,94.2369,265.3709,94.6981,0,U,56900,999,17063,.65624784E-4,.1544E-4,0
STARLINK-6185,2023-083AB,2026-07-10T23:25:25.760640,15.27584561,.00013273,43.0021,105.6797,269.2662,90.8038,0,U,56901,999,17063,.34013556E-4,.674E-5,0
STARLINK-6195,2023-083AC,2026-07-11T01:44:00.812832,15.27584402,.00021421,43.0041,94.2484,247.4415,112.6211,0,U,56902,999,17077,.65529256E-4,.1541E-4,0
STARLINK-6192,2023-083AD,2026-07-11T03:29:02.780448,15.27574834,.00015459,43.0046,104.3693,273.4043,86.6632,0,U,56903,999,17066,.6730564E-5,-.77E-6,0
STARLINK-6193,2023-083AE,2026-07-10T22:06:06.105600,15.27571085,.00013646,43.0045,94.8341,269.6857,90.3839,0,U,56904,999,17064,-.6043821E-5,-.428E-5,0
STARLINK-6183,2023-083AF,2026-07-11T03:30:55.155744,15.27583093,.00012892,43.0024,93.0991,253.0977,106.9733,0,U,56905,999,17068,.4311693E-5,-.143E-5,0
STARLINK-6098,2023-083AG,2026-07-11T03:42:01.454400,15.27583808,.0001378,43.0000,93.1519,347.7729,12.3089,0,U,56906,999,17068,.4505388E-5,-.138E-5,0
STARLINK-6110,2023-083AH,2026-07-11T02:02:18.759840,15.27584374,.00013543,43.0025,93.4929,254.0599,106.0103,0,U,56907,999,17078,.21097794E-4,.319E-5,0
STARLINK-6186,2023-083AJ,2026-07-11T02:28:13.529568,15.27578560,.00016614,43.0041,93.6198,265.6360,94.4302,0,U,56908,999,17067,.85080401E-4,.208E-4,0
STARLINK-5999,2023-083AK,2026-07-09T04:19:02.960832,15.27567352,.00013404,43.0024,104.9880,264.7159,95.3540,0,U,56909,999,17048,.54050743E-4,.1225E-4,0
STARLINK-6179,2023-083AL,2026-07-11T02:39:19.143072,15.27571222,.00014539,43.0052,93.6794,263.6651,96.4035,0,U,56910,999,17066,-.3646392E-5,-.363E-5,0
STARLINK-6116,2023-083AM,2026-07-10T15:18:00.946080,15.27575320,.00009068,43.0020,96.1438,253.4306,106.6446,0,U,56911,999,17060,-.3430127E-5,-.356E-5,0
STARLINK-5805,2023-083AN,2026-07-10T22:11:38.741280,15.27578365,.00015836,43.0048,94.8635,275.9412,84.1259,0,U,56912,999,17064,.8638114E-5,-.25E-6,0
STARLINK-5950,2023-083AP,2026-07-10T23:14:20.796864,15.27584754,.00009962,43.0023,94.3290,261.8232,98.2507,0,U,56913,999,17065,-.4717426E-4,-.156E-4,0
STARLINK-5961,2023-083AQ,2026-07-11T01:54:54.713088,15.27583702,.00010055,43.0047,93.4448,294.3015,65.7732,0,U,56914,999,17067,.11493165E-4,.54E-6,0
STARLINK-5965,2023-083AR,2026-07-11T02:33:47.448288,15.27570627,.00011625,43.0039,93.6476,251.6983,108.3742,0,U,56915,999,17067,.9649164E-5,.3E-7,0
STARLINK-5973,2023-083AS,2026-07-10T02:59:33.908064,15.27588959,.00017165,43.0046,99.1729,263.4593,96.6063,0,U,56916,999,17049,.27309907E-4,.489E-5,0
STARLINK-5971,2023-083AT,2026-07-10T22:17:11.883264,15.27580231,.00028314,43.0051,94.8924,291.0273,69.0276,0,U,56917,999,17064,.348028E-5,-.167E-5,0
STARLINK-5951,2023-083AU,2026-07-09T03:10:33.478752,15.27580439,.00012199,43.0022,104.6227,266.1459,93.9253,0,U,56918,999,17037,.97129E-5,.5E-7,0
